#dP2024  3 11 18  0  0.00000000      96 __u+U IGS20 EXT  IAC
## 2305 151200.00000000   900.00000000 60380 0.7500000000000
+  118   C06C07C08C09C10C11C12C13C14C16C19C20C21C22C23C24C25
+        C26C27C28C29C30C32C33C34C35C36C37C38C39C40C41C42C43
+        C44C45C46E02E03E04E05E07E08E09E10E11E12E13E14E15E18
+        E19E21E24E25E26E27E30E31E33E34E36G01G02G03G04G05G06
+        G07G08G09G10G11G12G13G14G15G16G17G18G19G20G21G22G23
+        G24G25G26G27G28G29G30G31G32J02J04R01R02R03R04R05R07
+        R08R09R11R12R13R14R15R16R17R18R19R20R21R22R24R25  0
++        12  9 11 12  9  7  9 11  8 11  7  8  9  9  8 10  8
++         8  8  8  8  8  9  8  8  0  8  9  9  9  8  7  7  8
++         8  9  9  7  9  7  7  7  7  7  8  7  7  9  7  8  8
++         8  8  9  8  8  8  7  8  8  7  7  8  8  6  7  7  7
++         8  7  7  7  7  8  7  8  9  7  8  8  8  7  7  7  7
++         7  8  8  7  8  8  7  8  8 10  9  9  9  8  7  7  9
++         8  9  7  7  8  7  8  8  8 10  9  9  7  7  8  9  0
%c M  cc GPS ccc cccc cccc cccc cccc ccccc ccccc ccccc ccccc
%c cc cc ccc ccc cccc cccc cccc cccc ccccc ccccc ccccc ccccc
%f  0.0000000  0.000000000  0.00000000000  0.000000000000000
%f  0.0000000  0.000000000  0.00000000000  0.000000000000000
%i    0    0    0    0      0      0      0      0         0
%i    0    0    0    0      0      0      0      0         0
/* IAC                                ULTRA-RAPID PREDICTION
/* S/V CLOCKS ARE ALIGNED TO GNSS TIME                      
/* G:C1WC2W R:C1PC2P E:C1XC5X C:C2IC6I J:C1CC2S             
/* PCV:IGS20_2290 OL/AL:FES2004  NONE     YN ORB:CoN CLK:CoN
*  2024 03 12 15 15  0.00000000
PC06 -17655.745312  35752.435624 -14116.271213    268.236742
PC07  -3948.708043  35175.739599 -22675.403702   -922.317580
PC08 -10062.325437  18718.120881  36390.807643    130.298186
PC09 -13019.250402  34625.185782 -20345.232555   -610.980642
PC10   3109.631072  37928.163535 -17227.099305     48.189268
PC11 -17841.402542   8768.790264 -19515.859624    456.092939
PC12 -11296.374762 -11953.064060 -22506.849011   -211.537139
PC13   -601.099358  21835.991797  36234.039787    424.284874
PC14 -19176.611117  -1824.602992  20231.679395    389.607979
PC16 -20915.985813  35248.888538 -10340.355262   -391.970556
PC19  13756.886382  -7691.965611 -22996.796775   -919.835965
PC20  21134.487037   9481.310577 -15520.280139   -249.741747
PC21 -16332.594993 -22546.495778  -2116.529076   -961.357732
PC22  -1948.165681 -21497.184517 -17700.399895    -77.534540
PC23  -9394.100751  16468.821121 -20478.220455   -776.745773
PC24 -26071.745457  -2799.120263   9496.657806    955.849349
PC25 -24562.950329  10449.526306  -8117.787764    347.737053
PC26 -12617.772415 -13141.220840  21109.851506   -261.758511
PC27   6109.384446  19912.989363  18557.873172    283.650541
PC28  -6332.927105  26613.690983   5524.778750    216.277757
PC29  16414.075443 -17997.003933  13605.686521    253.597538
PC30  16060.261952   2388.264663  22684.674585    -37.224888
PC32  16415.414201  22443.564938   2260.375376   -581.807352
PC33 -13840.781325   7677.945182  22993.250002   -957.036548
PC34 -16588.582703   -583.830020 -22449.128077    388.534996
PC35   5404.987538 -26826.001137  -5370.693738    412.884135
PC36  25004.163175  -9674.406979   7777.409405     15.793121
PC37  11971.945256  13573.597660 -21243.541911   -943.933018
PC38 -18608.224484  18859.330000  32816.145085    142.272743
PC39 -22805.377813  35368.270130  -4098.741674     -7.541956
PC40  -7663.945916  31636.781979 -26649.927730    -60.457751
PC41   1187.844493  21102.140654  18271.462585   -904.385198
PC42 -21387.174332 -10891.844037  14313.609285   -447.595837
PC43 -16754.536884  17174.344419 -14283.214315     63.840237
PC44  -6917.345053 -19791.709236 -18415.746924    411.081792
PC45   9353.448009 -16342.448205  20594.757048    -75.212531
PC46  26416.781399   2245.593490  -8784.526134   -131.050671
PE02  20732.484445  18049.537030 -11015.176179    110.610320
PE03  11797.570951  23476.250652 -13619.800541    -99.795265
PE04 -17118.439339  -3635.181019  23884.976261   -347.957997
PE05   -330.772732  29264.931002   4433.048511   4728.383110
PE07  12517.889103 -17627.864409 -20210.793166   -108.513002
PE08  16959.499754   4499.458619 -23832.158960   -237.759825
PE09 -12461.999868  17485.288043  20375.407643   -367.845412
PE10 -25820.521286  11885.687710  -8270.029098   -608.740459
PE11 -23267.003094  18187.776555   2168.484726   3177.634683
PE12 -24358.277305   4380.127080 -16258.374516   -945.246564
PE13  23522.675383 -17889.991566  -1515.520304    -20.507898
PE14 -13216.568959  16496.547459 -16744.168538     64.382210
PE15  24098.230978  -3951.272460  16725.022006    -90.810262
PE18   3729.926630 -29784.122843   5915.784012    427.164756
PE19 -10516.795568 -24980.846280  11907.616083   -446.801812
PE21  -2438.328970 -18564.160391  22916.533332   -583.567103
PE24 -18405.384489   8068.097295 -21747.698687   -647.111206
PE25   2000.134193  18465.013188 -23052.865262      2.019501
PE26   8540.320328 -21125.938863 -18881.990862    394.333423
PE27  18089.644222  -8304.757712  21905.107055   -296.887082
PE30  27702.494743   6955.772673   7780.252403    -87.317918
PE31 -27694.116156  -6715.620361  -7999.228989    -18.086255
PE33 -10038.771344 -12458.404267 -24899.138447      8.902180
PE34  10573.841467  12063.265287  24874.655467    -99.561182
PE36  -9224.071614  21146.482741  18559.433235   -198.215948
PG01   4224.520788 -18268.633909 -19019.803102    173.598319
PG02  12225.501497 -20589.323239 -10710.946318   -471.462130
PG03    638.732508 -15508.469807 -21716.031659    247.709165
PG04   2434.005199 -25576.871341  -6442.991733    313.155566
PG05 -14701.268619   9109.952298  20009.542145   -165.122126
PG06 -20899.009055   1913.887077 -16278.830098    370.979748
PG07  -7280.276302 -14000.326154  21828.833599    -82.610285
PG08   7121.717202 -20949.422303  14267.079729     49.651518
PG09  -7924.522366 -24493.372726   6338.622891    122.091817
PG10  24395.818635  10937.239726    517.567169     -0.066348
PG11 -23470.156411  10944.646348  -5763.946286   -604.391614
PG12  -2807.260826  15525.586651 -21661.866901   -486.479454
PG13 -13127.680574  13132.741941  18699.499145    633.489361
PG14 -22668.336667 -13530.144171   3791.249130    348.651053
PG15  -4580.792250  21858.036887  13729.944137    136.890850
PG16  19730.445135  -3110.839521  17393.479732   -342.818973
PG17 -12419.797475 -15803.525417 -16861.199431    713.938283
PG18   7536.787129  12916.058848  21956.727152   -574.047961
PG19 -14741.083287  -6437.122831 -21383.355807    452.956912
PG20 -23620.959813   2930.954590  11684.405528    384.201926
PG21  15747.635044 -19687.690058  -6030.040212    131.637662
PG22 -24038.204759 -10064.184858  -3817.915926     17.117626
PG23  17911.830064  15772.326824  11879.164257    175.491574
PG24 -12694.960092  21128.484174  -9743.027166   -445.233391
PG25   9068.063049  17706.474058 -18064.826052    491.102570
PG26  25432.924408   2698.701480   7677.833326    180.362196
PG27  13243.079154  -9570.481156  20566.362112    -11.220126
PG28  19664.694348    280.239454 -17866.298292   -161.856484
PG29   4280.504197  25699.773238   4815.369017   -604.994195
PG30 -16832.096664  -5807.691562  19916.974487   -420.745779
PG31  23515.716536  -7570.469229 -10483.786956   -227.970095
PG32  14496.810893  12314.974221 -18414.831952   -615.541446
PJ02 -26186.076411  15990.217254 -24305.713329     -2.839424
PJ04 -25039.076800  27191.131962  26176.293446     50.703389
PR01 -13630.152726  -3252.054280  21325.611255     79.491564
PR02  -4229.216991  13321.466217  21404.813988    -22.585483
PR03   7433.583663  22665.886714   9169.835347     96.238295
PR04  14468.998686  19512.582675  -7768.632659    227.248052
PR05  13895.088378   5914.966065 -20546.088473    128.290116
PR07  -7970.164860 -22757.657753  -8200.167401     77.776643
PR08 -14748.846797 -19157.767658   8148.378268    -74.704223
PR09  16231.911466  -8822.438142  17562.611818    174.918252
PR11 -17907.395222  -7967.183147  16341.314559     31.481487
PR12 -25434.497522    381.506535  -1774.746946     37.722191
PR13 -18418.322094   7545.864923 -15969.108403    -45.227995
PR14   1694.584659  11133.954726 -22880.242020     26.212549
PR15  19019.459934   7663.415732 -15155.874279     81.418338
PR16  25441.808936   -385.590516   1531.400145     23.951693
PR17  -5482.064186  20761.261669  13751.600697     68.383276
PR18   5808.001209   9996.326368  22759.369614    131.786447
PR19  13978.640530  -3959.779532  20964.392329   -269.096025
PR20  15697.135734 -19604.484032   4325.621738   -109.684408
PR21   5622.040542 -20663.198390 -13874.075830    -83.969294
PR22  -6647.406358  -9356.393725 -22752.076148    112.409015
PR24 -14765.898417  20466.014507  -3670.361142    -47.497064
PR25   6087.890648 -20587.514583 -13782.020560    -22.306927
EOF
